[{"name":"ISS (ZARYA)","l1":"1 25544U 98067A   26182.50817465  .00006185  00000+0  11827-3 0  9996","l2":"2 25544  51.6311 229.1989 0004224 255.0896 104.9625 15.49503254573972","cat":"stations"},{"name":"OSCAR 7 (AO-7)","l1":"1 07530U 74089B   26183.48564858 -.00000043  00000+0  23671-4 0  9991","l2":"2 07530 101.9899 196.8917 0012660 101.7841  56.6522 12.53698362362431","cat":"other"},{"name":"PHASE 3B (AO-10)","l1":"1 14129U 83058B   26182.45083748 -.00000048  00000+0  00000+0 0  9990","l2":"2 14129  25.9245 217.2087 6005973 119.5898 312.7847  2.05870235295789","cat":"other"},{"name":"UOSAT 2 (UO-11)","l1":"1 14781U 84021B   26183.72596691  .00001689  00000+0  17723-3 0  9997","l2":"2 14781  97.8066 149.1279 0008803 125.8419 234.3618 14.90823999259446","cat":"other"},{"name":"LUSAT (LO-19)","l1":"1 20442U 90005G   26183.53106191  .00000138  00000+0  65860-4 0  9992","l2":"2 20442  98.8845 205.7592 0011988 156.2041 203.9699 14.34127832904592","cat":"other"},{"name":"EYESAT A (AO-27)","l1":"1 22825U 93061C   26183.59287117  .00000133  00000+0  67579-4 0  9992","l2":"2 22825  98.6875 251.0004 0009336  59.8657 300.3450 14.30946419709201","cat":"other"},{"name":"ITAMSAT (IO-26)","l1":"1 22826U 93061D   26183.63758889  .00000132  00000+0  66678-4 0  9995","l2":"2 22826  98.6822 250.9642 0009642  44.3148 315.8806 14.31373734709520","cat":"other"},{"name":"RADIO ROSTO (RS15)","l1":"1 23439U 94085A   26183.72526128 -.00000014  00000+0  80318-3 0  9998","l2":"2 23439  64.8178 278.0875 0156467   1.0037 359.1174 11.27583480297652","cat":"other"},{"name":"JAS-2 (FO-29)","l1":"1 24278U 96046B   26183.46748801 -.00000028  00000+0  56481-5 0  9995","l2":"2 24278  98.5226  30.2454 0350788  56.8950 306.5350 13.53274944475234","cat":"other"},{"name":"TECHSAT 1B (GO-32)","l1":"1 25397U 98043D   26183.72856333  .00000062  00000+0  46868-4 0  9990","l2":"2 25397  99.0074 176.8795 0001776 134.8948 225.2374 14.24431411453549","cat":"other"},{"name":"PCSAT (NO-44)","l1":"1 26931U 01043C   26183.45542852  .00000104  00000+0  69838-4 0  9996","l2":"2 26931  67.0489 204.7811 0006018 265.5934  94.4481 14.31961164292637","cat":"other"},{"name":"SAUDISAT 1C (SO-50)","l1":"1 27607U 02058C   26183.73200521  .00001058  00000+0  14185-3 0  9992","l2":"2 27607  64.5520  80.8899 0074883 259.5665  99.6996 14.83079392266767","cat":"other"},{"name":"CUTE-1 (CO-55)","l1":"1 27844U 03031E   26182.99996152  .00000303  00000+0  15002-3 0  9997","l2":"2 27844  98.6736 191.3725 0010408 137.1021 223.0971 14.24344824193780","cat":"other"},{"name":"CUBESAT XI-IV (CO-57)","l1":"1 27848U 03031J   26183.76896903  .00000279  00000+0  14166-3 0  9992","l2":"2 27848  98.6769 191.8320 0009990 152.4134 207.7577 14.23629228193598","cat":"other"},{"name":"MOZHAETS 4 (RS22)","l1":"1 27939U 03042A   26183.82996713  .00001627  00000+0  25860-3 0  9993","l2":"2 27939  98.3466   8.6307 0010324 214.1999 202.7774 14.73497109217854","cat":"other"},{"name":"CUBESAT XI-V","l1":"1 28895U 05043F   26183.69034545  .00001723  00000+0  27823-3 0  9997","l2":"2 28895  98.3002 339.6391 0014699 152.1460 208.0536 14.72675255104034","cat":"other"},{"name":"CUTE-1.7+APD II (CO-65)","l1":"1 32785U 08021C   26183.89264118  .00007348  00000+0  46082-3 0  9999","l2":"2 32785  97.8286 165.6398 0008120 347.2751  12.8271 15.09606626987562","cat":"other"},{"name":"SEEDS II (CO-66)","l1":"1 32791U 08021J   26183.80114904  .00020103  00000+0  62654-3 0  9991","l2":"2 32791  97.7521 182.4499 0001504 186.8338 173.2883 15.33292646989682","cat":"other"},{"name":"YUBILEINY (RS30)","l1":"1 32953U 08025A   26183.87216169  .00000060  00000+0  36410-3 0  9999","l2":"2 32953  82.5047 345.6812 0018506 277.6074  82.2904 12.43180358821643","cat":"other"},{"name":"KKS-1 (KISEKI)","l1":"1 33499U 09002H   26183.77363459  .00001569  00000+0  19908-3 0  9993","l2":"2 33499  98.1182 106.4628 0006564 234.2515 125.8088 14.83164432938502","cat":"other"},{"name":"SWISSCUBE","l1":"1 35932U 09051B   26183.28877764  .00001164  00000+0  23926-3 0  9992","l2":"2 35932  98.4025  91.4397 0007062 154.9157 205.2388 14.62510844891362","cat":"other"},{"name":"BEESAT-1","l1":"1 35933U 09051C   26183.30608929  .00000968  00000+0  20391-3 0  9995","l2":"2 35933  98.3950  91.0608 0005269 165.6666 194.4685 14.61745142891393","cat":"other"},{"name":"ITUPSAT1","l1":"1 35935U 09051E   26182.96766707  .00000816  00000+0  17832-3 0  9995","l2":"2 35935  98.4034  89.8935 0007122 182.8141 177.3019 14.60462418890892","cat":"other"},{"name":"XIWANG-1 (HOPE-1)","l1":"1 36122U 09072B   26183.82370010  .00000182  00000+0  59176-3 0  9994","l2":"2 36122 100.4035 137.4069 0007198 193.3160 166.7764 13.16440969795064","cat":"other"},{"name":"O/OREOS (USA 219)","l1":"1 37224U 10062C   26183.33098779  .00002634  00000+0  25359-3 0  9994","l2":"2 37224  71.9706  46.0346 0013207  30.8219 329.3725 14.93808360118901","cat":"classified"},{"name":"JUGNU","l1":"1 37839U 11058B   26183.77370612  .00000402  00000+0  70012-4 0  9997","l2":"2 37839  19.9590 213.7346 0018339 248.3915 277.2056 14.13780576761237","cat":"other"},{"name":"SRMSAT","l1":"1 37841U 11058D   26183.56263183  .00000399  00000+0  72828-4 0  9993","l2":"2 37841  19.9731 326.4081 0011821  13.5504  59.6043 14.11578853759999","cat":"other"},{"name":"STRAND-1","l1":"1 39090U 13009E   26183.44238219  .00000331  00000+0  12561-3 0  9991","l2":"2 39090  98.3927   3.3015 0008617 177.2756 182.8479 14.37172679699257","cat":"other"},{"name":"ZACUBE-1 (TSHEPISOSAT)","l1":"1 39417U 13066B   26183.47106021  .00003928  00000+0  30455-3 0  9992","l2":"2 39417  97.8040 145.8855 0042932 196.1986 163.7868 15.01273353683028","cat":"other"},{"name":"GOMX-1","l1":"1 39430U 13066Q   26183.64279913  .00001490  00000+0  22853-3 0  9992","l2":"2 39430  97.6468  23.1296 0129371  28.4265 332.3919 14.69510522672183","cat":"other"}]